{
    "links": {
        "self": "http://www.neowsapp.com/rest/v1/neo/3819571?api_key=iIulBulltgU6a56xZRHN4H3l9WmuAYTsLGpBGhQ2"
    },
    "id": "3819571",
    "neo_reference_id": "3819571",
    "name": "(2018 HJ2)",
    "designation": "2018 HJ2",
    "nasa_jpl_url": "http://ssd.jpl.nasa.gov/sbdb.cgi?sstr=3819571",
    "absolute_magnitude_h": 24.6,
    "estimated_diameter": {
        "kilometers": {
            "estimated_diameter_min": 0.0319561887,
            "estimated_diameter_max": 0.0714562102
        },
        "meters": {
            "estimated_diameter_min": 31.9561886721,
            "estimated_diameter_max": 71.4562101727
        },
        "miles": {
            "estimated_diameter_min": 0.0198566489,
            "estimated_diameter_max": 0.0444008168
        },
        "feet": {
            "estimated_diameter_min": 104.8431420431,
            "estimated_diameter_max": 234.436392583
        }
    },
    "is_potentially_hazardous_asteroid": false,
    "close_approach_data": [
        {
            "close_approach_date": "1971-05-24",
            "close_approach_date_full": "1971-May-24 23:17",
            "epoch_date_close_approach": 43975020000,
            "relative_velocity": {
                "kilometers_per_second": "22.2342290478",
                "kilometers_per_hour": "80043.2245719054",
                "miles_per_hour": "49735.7469569153"
            },
            "miss_distance": {
                "astronomical": "0.402581214",
                "lunar": "156.604092246",
                "kilometers": "60225292.11641418",
                "miles": "37422261.227828484"
            },
            "orbiting_body": "Earth"
        },
        {
            "close_approach_date": "2014-05-28",
            "close_approach_date_full": "2014-May-28 11:16",
            "epoch_date_close_approach": 1401275760000,
            "relative_velocity": {
                "kilometers_per_second": "24.4251078091",
                "kilometers_per_hour": "87930.3881127614",
                "miles_per_hour": "54636.5236581767"
            },
            "miss_distance": {
                "astronomical": "0.4810963568",
                "lunar": "187.1464827952",
                "kilometers": "71970990.242040016",
                "miles": "44720699.6100075808"
            },
            "orbiting_body": "Earth"
        },
        {
            "close_approach_date": "2018-04-16",
            "close_approach_date_full": "2018-Apr-16 15:52",
            "epoch_date_close_approach": 1523893920000,
            "relative_velocity": {
                "kilometers_per_second": "10.0830268605",
                "kilometers_per_hour": "36298.8966979793",
                "miles_per_hour": "22554.7227843638"
            },
            "miss_distance": {
                "astronomical": "0.0336629464",
                "lunar": "13.0948861496",
                "kilometers": "5035905.079364168",
                "miles": "3129166.3149467984"
            },
            "orbiting_body": "Earth"
        },
        {
            "close_approach_date": "2022-01-25",
            "close_approach_date_full": "2022-Jan-25 06:11",
            "epoch_date_close_approach": 1643091060000,
            "relative_velocity": {
                "kilometers_per_second": "17.6873058815",
                "kilometers_per_hour": "63674.3011733759",
                "miles_per_hour": "39564.7345263124"
            },
            "miss_distance": {
                "astronomical": "0.249532868",
                "lunar": "97.068285652",
                "kilometers": "37329585.54779116",
                "miles": "23195528.868431608"
            },
            "orbiting_body": "Earth"
        }
    ],
    "orbital_data": {
        "orbit_id": "17",
        "orbit_determination_date": "2018-06-13 06:23:32",
        "first_observation_date": "2018-04-23",
        "last_observation_date": "2018-05-23",
        "data_arc_in_days": 30,
        "observations_used": 106,
        "orbit_uncertainty": "6",
        "minimum_orbit_intersection": ".0146218",
        "jupiter_tisserand_invariant": "3.180",
        "epoch_osculation": "2459000.5",
        "eccentricity": ".6159625042686888",
        "semi_major_axis": "2.487010880251712",
        "inclination": "3.123430749333074",
        "ascending_node_longitude": "168.9556390228755",
        "orbital_period": "1432.56703962362",
        "perihelion_distance": ".9551054303083911",
        "perihelion_argument": "8.003676318051557",
        "aphelion_distance": "4.018916330195032",
        "perihelion_time": "2459635.148869166937",
        "mean_anomaly": "200.5145542367606",
        "mean_motion": ".2512971400588577",
        "equinox": "J2000",
        "orbit_class": {
            "orbit_class_type": "APO",
            "orbit_class_description": "Near-Earth asteroid orbits which cross the Earth’s orbit similar to that of 1862 Apollo",
            "orbit_class_range": "a (semi-major axis) > 1.0 AU; q (perihelion) < 1.017 AU"
        }
    },
    "is_sentry_object": false
}